[{"OBJECT_NAME":"JCSAT-3A","OBJECT_ID":"2006-033A","EPOCH":"2026-03-28T20:31:40.056672","MEAN_MOTION":1.002717,"ECCENTRICITY":0.0002247,"INCLINATION":0.0142,"RA_OF_ASC_NODE":121.3587,"ARG_OF_PERICENTER":253.8938,"MEAN_ANOMALY":246.9124,"EPHEMERIS_TYPE":0,"CLASSIFICATION_TYPE":"U","NORAD_CAT_ID":29272,"ELEMENT_SET_NO":999,"REV_AT_EPOCH":4693,"BSTAR":0,"MEAN_MOTION_DOT":-3.64e-6,"MEAN_MOTION_DDOT":0},{"OBJECT_NAME":"KOREASAT 5 (MUGUNGWHA 5)","OBJECT_ID":"2006-034A","EPOCH":"2026-03-28T20:27:25.464384","MEAN_MOTION":1.0027248,"ECCENTRICITY":0.0001817,"INCLINATION":1.5782,"RA_OF_ASC_NODE":83.9725,"ARG_OF_PERICENTER":315.0002,"MEAN_ANOMALY":207.1946,"EPHEMERIS_TYPE":0,"CLASSIFICATION_TYPE":"U","NORAD_CAT_ID":29349,"ELEMENT_SET_NO":999,"REV_AT_EPOCH":4051,"BSTAR":0,"MEAN_MOTION_DOT":-3.76e-6,"MEAN_MOTION_DDOT":0},{"OBJECT_NAME":"ZHONGXING-22A","OBJECT_ID":"2006-038A","EPOCH":"2026-03-28T11:19:38.894016","MEAN_MOTION":1.00075185,"ECCENTRICITY":7.564e-5,"INCLINATION":11.35,"RA_OF_ASC_NODE":38.0196,"ARG_OF_PERICENTER":277.6195,"MEAN_ANOMALY":265.9808,"EPHEMERIS_TYPE":0,"CLASSIFICATION_TYPE":"U","NORAD_CAT_ID":29398,"ELEMENT_SET_NO":999,"REV_AT_EPOCH":7157,"BSTAR":0,"MEAN_MOTION_DOT":7.1e-7,"MEAN_MOTION_DDOT":0},{"OBJECT_NAME":"DIRECTV 9S","OBJECT_ID":"2006-043A","EPOCH":"2026-03-28T21:27:25.437024","MEAN_MOTION":1.00271611,"ECCENTRICITY":0.0003504,"INCLINATION":2.2142,"RA_OF_ASC_NODE":81.8531,"ARG_OF_PERICENTER":296.7732,"MEAN_ANOMALY":28.3322,"EPHEMERIS_TYPE":0,"CLASSIFICATION_TYPE":"U","NORAD_CAT_ID":29494,"ELEMENT_SET_NO":999,"REV_AT_EPOCH":5057,"BSTAR":0,"MEAN_MOTION_DOT":-1.31e-6,"MEAN_MOTION_DDOT":0},{"OBJECT_NAME":"OPTUS D1","OBJECT_ID":"2006-043B","EPOCH":"2026-03-28T18:55:41.470752","MEAN_MOTION":1.00272044,"ECCENTRICITY":0.0003889,"INCLINATION":2.8285,"RA_OF_ASC_NODE":80.6285,"ARG_OF_PERICENTER":286.9976,"MEAN_ANOMALY":254.4762,"EPHEMERIS_TYPE":0,"CLASSIFICATION_TYPE":"U","NORAD_CAT_ID":29495,"ELEMENT_SET_NO":999,"REV_AT_EPOCH":7131,"BSTAR":0,"MEAN_MOTION_DOT":-2.01e-6,"MEAN_MOTION_DDOT":0},{"OBJECT_NAME":"BLOCK DM-SL R/B","OBJECT_ID":"2006-049B","EPOCH":"2026-03-28T17:29:57.192288","MEAN_MOTION":2.18869611,"ECCENTRICITY":0.6941535,"INCLINATION":0.6055,"RA_OF_ASC_NODE":35.3994,"ARG_OF_PERICENTER":36.4801,"MEAN_ANOMALY":304.1941,"EPHEMERIS_TYPE":0,"CLASSIFICATION_TYPE":"U","NORAD_CAT_ID":29521,"ELEMENT_SET_NO":999,"REV_AT_EPOCH":15517,"BSTAR":0,"MEAN_MOTION_DOT":-4.8e-7,"MEAN_MOTION_DDOT":0},{"OBJECT_NAME":"BADR-4","OBJECT_ID":"2006-051A","EPOCH":"2026-03-28T20:02:40.608672","MEAN_MOTION":1.00269954,"ECCENTRICITY":0.0007025,"INCLINATION":1.7981,"RA_OF_ASC_NODE":81.9673,"ARG_OF_PERICENTER":276.8407,"MEAN_ANOMALY":154.3391,"EPHEMERIS_TYPE":0,"CLASSIFICATION_TYPE":"U","NORAD_CAT_ID":29526,"ELEMENT_SET_NO":999,"REV_AT_EPOCH":5046,"BSTAR":0,"MEAN_MOTION_DOT":1.27e-6,"MEAN_MOTION_DDOT":0},{"OBJECT_NAME":"BREEZE-M R/B","OBJECT_ID":"2006-051B","EPOCH":"2026-03-27T05:05:05.631072","MEAN_MOTION":2.09458932,"ECCENTRICITY":0.63412938,"INCLINATION":14.7872,"RA_OF_ASC_NODE":357.4374,"ARG_OF_PERICENTER":265.9651,"MEAN_ANOMALY":24.5622,"EPHEMERIS_TYPE":0,"CLASSIFICATION_TYPE":"U","NORAD_CAT_ID":29527,"ELEMENT_SET_NO":999,"REV_AT_EPOCH":14825,"BSTAR":0,"MEAN_MOTION_DOT":-1.4e-6,"MEAN_MOTION_DDOT":0},{"OBJECT_NAME":"FENGYUN 2D AKM","OBJECT_ID":"2006-053C","EPOCH":"2026-03-27T13:09:45.508896","MEAN_MOTION":0.99352407,"ECCENTRICITY":0.01071948,"INCLINATION":11.6595,"RA_OF_ASC_NODE":38.4917,"ARG_OF_PERICENTER":44.6823,"MEAN_ANOMALY":191.0429,"EPHEMERIS_TYPE":0,"CLASSIFICATION_TYPE":"U","NORAD_CAT_ID":29642,"ELEMENT_SET_NO":999,"REV_AT_EPOCH":4544,"BSTAR":0,"MEAN_MOTION_DOT":-7.5e-7,"MEAN_MOTION_DDOT":0},{"OBJECT_NAME":"WILDBLUE-1","OBJECT_ID":"2006-054A","EPOCH":"2026-03-28T15:57:58.512384","MEAN_MOTION":1.00271746,"ECCENTRICITY":0.0001663,"INCLINATION":2.5959,"RA_OF_ASC_NODE":81.4808,"ARG_OF_PERICENTER":274.4407,"MEAN_ANOMALY":318.4408,"EPHEMERIS_TYPE":0,"CLASSIFICATION_TYPE":"U","NORAD_CAT_ID":29643,"ELEMENT_SET_NO":999,"REV_AT_EPOCH":5298,"BSTAR":0,"MEAN_MOTION_DOT":-6.7e-7,"MEAN_MOTION_DDOT":0},{"OBJECT_NAME":"MEASAT-3","OBJECT_ID":"2006-056A","EPOCH":"2026-03-28T18:51:11.901024","MEAN_MOTION":0.99751251,"ECCENTRICITY":0.0005347,"INCLINATION":4.5232,"RA_OF_ASC_NODE":77.1354,"ARG_OF_PERICENTER":235.4266,"MEAN_ANOMALY":292.2763,"EPHEMERIS_TYPE":0,"CLASSIFICATION_TYPE":"U","NORAD_CAT_ID":29648,"ELEMENT_SET_NO":999,"REV_AT_EPOCH":4958,"BSTAR":0,"MEAN_MOTION_DOT":-3.55e-6,"MEAN_MOTION_DDOT":0},{"OBJECT_NAME":"TITAN 3C TRANSTAGE DEB","OBJECT_ID":"1968-081J","EPOCH":"2026-03-28T12:39:55.003680","MEAN_MOTION":1.00913244,"ECCENTRICITY":0.0130346,"INCLINATION":1.764,"RA_OF_ASC_NODE":40.3938,"ARG_OF_PERICENTER":319.7917,"MEAN_ANOMALY":291.0816,"EPHEMERIS_TYPE":0,"CLASSIFICATION_TYPE":"U","NORAD_CAT_ID":30000,"ELEMENT_SET_NO":999,"REV_AT_EPOCH":7842,"BSTAR":0,"MEAN_MOTION_DOT":-3.29e-6,"MEAN_MOTION_DDOT":0},{"OBJECT_NAME":"BEIDOU-1 G4","OBJECT_ID":"2007-003A","EPOCH":"2026-03-27T21:15:38.105280","MEAN_MOTION":0.99153876,"ECCENTRICITY":0.0056551,"INCLINATION":9.7032,"RA_OF_ASC_NODE":57.8038,"ARG_OF_PERICENTER":272.2224,"MEAN_ANOMALY":86.9467,"EPHEMERIS_TYPE":0,"CLASSIFICATION_TYPE":"U","NORAD_CAT_ID":30323,"ELEMENT_SET_NO":999,"REV_AT_EPOCH":6989,"BSTAR":0,"MEAN_MOTION_DOT":-6.8e-7,"MEAN_MOTION_DDOT":0},{"OBJECT_NAME":"THEMIS A","OBJECT_ID":"2007-004A","EPOCH":"2026-03-27T18:52:52.630464","MEAN_MOTION":0.87845711,"ECCENTRICITY":0.839405,"INCLINATION":7.1458,"RA_OF_ASC_NODE":117.365,"ARG_OF_PERICENTER":182.7797,"MEAN_ANOMALY":163.4374,"EPHEMERIS_TYPE":0,"CLASSIFICATION_TYPE":"U","NORAD_CAT_ID":30580,"ELEMENT_SET_NO":999,"REV_AT_EPOCH":4056,"BSTAR":-0.0015456,"MEAN_MOTION_DOT":8.0e-8,"MEAN_MOTION_DDOT":0},{"OBJECT_NAME":"SKYNET 5A","OBJECT_ID":"2007-007B","EPOCH":"2026-03-28T20:22:18.454944","MEAN_MOTION":1.00273826,"ECCENTRICITY":0.0003932,"INCLINATION":5.0968,"RA_OF_ASC_NODE":74.703,"ARG_OF_PERICENTER":302.8669,"MEAN_ANOMALY":209.4701,"EPHEMERIS_TYPE":0,"CLASSIFICATION_TYPE":"U","NORAD_CAT_ID":30794,"ELEMENT_SET_NO":999,"REV_AT_EPOCH":6989,"BSTAR":0,"MEAN_MOTION_DOT":-2.87e-6,"MEAN_MOTION_DDOT":0},{"OBJECT_NAME":"THEMIS D","OBJECT_ID":"2007-004D","EPOCH":"2026-03-28T19:50:41.757216","MEAN_MOTION":0.87835026,"ECCENTRICITY":0.8348023,"INCLINATION":6.9062,"RA_OF_ASC_NODE":83.7001,"ARG_OF_PERICENTER":219.3021,"MEAN_ANOMALY":118.6591,"EPHEMERIS_TYPE":0,"CLASSIFICATION_TYPE":"U","NORAD_CAT_ID":30797,"ELEMENT_SET_NO":999,"REV_AT_EPOCH":4037,"BSTAR":0,"MEAN_MOTION_DOT":-4.5e-7,"MEAN_MOTION_DDOT":0},{"OBJECT_NAME":"THEMIS E","OBJECT_ID":"2007-004E","EPOCH":"2026-03-22T02:34:14.937312","MEAN_MOTION":0.87837115,"ECCENTRICITY":0.83542441,"INCLINATION":4.4028,"RA_OF_ASC_NODE":99.1325,"ARG_OF_PERICENTER":204.1504,"MEAN_ANOMALY":168.435,"EPHEMERIS_TYPE":0,"CLASSIFICATION_TYPE":"U","NORAD_CAT_ID":30798,"ELEMENT_SET_NO":999,"REV_AT_EPOCH":6515,"BSTAR":0,"MEAN_MOTION_DOT":-1.02e-6,"MEAN_MOTION_DDOT":0},{"OBJECT_NAME":"ANIK F3","OBJECT_ID":"2007-009A","EPOCH":"2026-03-28T15:55:58.704096","MEAN_MOTION":1.00271913,"ECCENTRICITY":0.000273,"INCLINATION":0.9898,"RA_OF_ASC_NODE":84.7856,"ARG_OF_PERICENTER":280.4467,"MEAN_ANOMALY":301.1126,"EPHEMERIS_TYPE":0,"CLASSIFICATION_TYPE":"U","NORAD_CAT_ID":31102,"ELEMENT_SET_NO":999,"REV_AT_EPOCH":4575,"BSTAR":0,"MEAN_MOTION_DOT":-2.0e-7,"MEAN_MOTION_DDOT":0},{"OBJECT_NAME":"BREEZE-M R/B","OBJECT_ID":"2007-009C","EPOCH":"2026-03-27T15:09:49.172832","MEAN_MOTION":1.96445535,"ECCENTRICITY":0.56587724,"INCLINATION":12.0621,"RA_OF_ASC_NODE":289.7878,"ARG_OF_PERICENTER":85.1536,"MEAN_ANOMALY":33.7913,"EPHEMERIS_TYPE":0,"CLASSIFICATION_TYPE":"U","NORAD_CAT_ID":31104,"ELEMENT_SET_NO":999,"REV_AT_EPOCH":13612,"BSTAR":0,"MEAN_MOTION_DOT":-4.8e-7,"MEAN_MOTION_DDOT":0},{"OBJECT_NAME":"SATCOM 3 DEB","OBJECT_ID":"1979-101H","EPOCH":"2026-03-26T15:41:07.279008","MEAN_MOTION":1.83049558,"ECCENTRICITY":0.48792262,"INCLINATION":9.0661,"RA_OF_ASC_NODE":58.2844,"ARG_OF_PERICENTER":156.9885,"MEAN_ANOMALY":341.9083,"EPHEMERIS_TYPE":0,"CLASSIFICATION_TYPE":"U","NORAD_CAT_ID":31138,"ELEMENT_SET_NO":999,"REV_AT_EPOCH":12913,"BSTAR":0,"MEAN_MOTION_DOT":-1.57e-6,"MEAN_MOTION_DDOT":0},{"OBJECT_NAME":"ASTRA 1L","OBJECT_ID":"2007-016A","EPOCH":"2026-03-28T20:12:38.537280","MEAN_MOTION":1.00271466,"ECCENTRICITY":0.0003998,"INCLINATION":1.1147,"RA_OF_ASC_NODE":82.1375,"ARG_OF_PERICENTER":300.7157,"MEAN_ANOMALY":82.0358,"EPHEMERIS_TYPE":0,"CLASSIFICATION_TYPE":"U","NORAD_CAT_ID":31306,"ELEMENT_SET_NO":999,"REV_AT_EPOCH":4418,"BSTAR":0,"MEAN_MOTION_DOT":-2.03e-6,"MEAN_MOTION_DDOT":0},{"OBJECT_NAME":"GALAXY 17 (G-17)","OBJECT_ID":"2007-016B","EPOCH":"2026-03-28T19:30:53.805600","MEAN_MOTION":1.00270731,"ECCENTRICITY":0.0003692,"INCLINATION":2.7695,"RA_OF_ASC_NODE":80.8925,"ARG_OF_PERICENTER":297.1443,"MEAN_ANOMALY":15.9019,"EPHEMERIS_TYPE":0,"CLASSIFICATION_TYPE":"U","NORAD_CAT_ID":31307,"ELEMENT_SET_NO":999,"REV_AT_EPOCH":6899,"BSTAR":0,"MEAN_MOTION_DOT":-2.23e-6,"MEAN_MOTION_DDOT":0},{"OBJECT_NAME":"NIGCOMSAT 1","OBJECT_ID":"2007-018A","EPOCH":"2026-03-28T18:41:05.371296","MEAN_MOTION":1.00225786,"ECCENTRICITY":0.0002186,"INCLINATION":11.736,"RA_OF_ASC_NODE":33.4972,"ARG_OF_PERICENTER":105.6096,"MEAN_ANOMALY":67.5401,"EPHEMERIS_TYPE":0,"CLASSIFICATION_TYPE":"U","NORAD_CAT_ID":31395,"ELEMENT_SET_NO":999,"REV_AT_EPOCH":6925,"BSTAR":0,"MEAN_MOTION_DOT":-3.2e-6,"MEAN_MOTION_DDOT":0},{"OBJECT_NAME":"ARIANE 5 DEB [SYLDA]","OBJECT_ID":"2007-044D","EPOCH":"2026-03-28T19:49:19.390368","MEAN_MOTION":2.26829395,"ECCENTRICITY":0.7160422,"INCLINATION":4.3075,"RA_OF_ASC_NODE":86.8654,"ARG_OF_PERICENTER":269.5348,"MEAN_ANOMALY":11.4165,"EPHEMERIS_TYPE":0,"CLASSIFICATION_TYPE":"U","NORAD_CAT_ID":32255,"ELEMENT_SET_NO":999,"REV_AT_EPOCH":15267,"BSTAR":0.0014431,"MEAN_MOTION_DOT":-1.29e-6,"MEAN_MOTION_DDOT":0}]
